[{"OBJECT_NAME":"STARLINK-6225","OBJECT_ID":"2023-088AW","EPOCH":"2026-03-09T22:00:01.999584","MEAN_MOTION":15.09115885,"ECCENTRICITY":0.00012797,"INCLINATION":43.0006,"RA_OF_ASC_NODE":92.9772,"ARG_OF_PERICENTER":300.4032,"MEAN_ANOMALY":173.2398,"EPHEMERIS_TYPE":0,"CLASSIFICATION_TYPE":"U","NORAD_CAT_ID":57092,"ELEMENT_SET_NO":999,"REV_AT_EPOCH":578,"BSTAR":0.0035676543,"MEAN_MOTION_DOT":0.0005781,"MEAN_MOTION_DDOT":0},{"OBJECT_NAME":"PSLV DEB","OBJECT_ID":"2001-049NA","EPOCH":"2026-03-08T15:04:56.759808","MEAN_MOTION":15.08740413,"ECCENTRICITY":0.00254054,"INCLINATION":98.314,"RA_OF_ASC_NODE":131.3874,"ARG_OF_PERICENTER":357.4644,"MEAN_ANOMALY":2.6449,"EPHEMERIS_TYPE":0,"CLASSIFICATION_TYPE":"U","NORAD_CAT_ID":27582,"ELEMENT_SET_NO":999,"REV_AT_EPOCH":27774,"BSTAR":0.00086862236,"MEAN_MOTION_DOT":0.0001368,"MEAN_MOTION_DDOT":0}]
